CRE (WAAS/PRN 138)      
1 28868U 05036A   24196.54112752 -.00000059  00000+0  00000+0 0  9998
2 28868   2.5003  85.3281 0003750  17.0847 277.9728  1.00272131 39408
IOR-W (EGNOS/PRN 126)   
1 28899U 05044A   24196.53014168 -.00000247  00000+0  00000+0 0  9991
2 28899   4.2178  42.5547 0001953  77.4278 147.2304  1.00271229 68470
GSAT-8 (GAGAN/PRN 127)  
1 37605U 11022A   24196.57341292  .00000101  00000+0  00000+0 0  9992
2 37605   0.3073  91.2262 0002556 153.9336 309.2857  1.00271604 46179
LUCH 5A (SDCM/PRN 140)  
1 37951U 11074B   24196.49320155 -.00000037  00000+0  00000+0 0  9998
2 37951   6.9530  84.5511 0004398  32.7746 160.0291  1.00270168 46001
SES-5 (EGNOS/PRN 136)   
1 38652U 12036A   24196.56349234  .00000050  00000+0  00000+0 0  9997
2 38652   0.0729 291.0524 0002085 166.2360  43.4490  1.00270189 37446
GSAT-10 (GAGAN/PRN 128) 
1 38779U 12051B   24195.57724336 -.00000150  00000+0  00000+0 0  9996
2 38779   0.0159  68.8020 0000622 338.5051 175.4377  1.00271233 43235
LUCH 5B (SDCM/PRN 125)  
1 38977U 12061A   24196.41608340 -.00000126  00000+0  00000+0 0  9990
2 38977   8.9459  56.4663 0004797 100.9158 268.9288  1.00272857 42564
ASTRA 5B (EGNOS/PRN 123)
1 39617U 14011B   24196.56714729  .00000154  00000+0  00000+0 0  9994
2 39617   0.0568 318.9366 0002179 164.4860  37.1499  1.00273241 37622
LUCH 5V (SDCM/PRN 141)  
1 39727U 14023A   24196.58136920 -.00000255  00000+0  00000+0 0  9995
2 39727   3.3627  75.8614 0002248  84.7702  76.3370  1.00273417 37311
GSAT-15 (GAGAN/PRN 139) 
1 41028U 15065A   24196.16230177 -.00000242  00000+0  00000+0 0  9998
2 41028   0.1037 272.3857 0003862 173.4087 358.6160  1.00271723 31759
E 117 W B (WAAS/PRN 131)
1 41589U 16038B   24196.39615520  .00000005  00000+0  00000+0 0  9991
2 41589   0.0121 129.7445 0000255  53.7874 134.8285  1.00273125 29622
SES-15 (WAAS/PRN 133)   
1 42709U 17026A   24196.40074623  .00000076  00000+0  00000+0 0  9997
2 42709   0.0190  36.9776 0000437  60.1521 210.7444  1.00269614   394
QZS-2 (QZSS/PRN 194)    
1 42738U 17028A   24195.01484505 -.00000138  00000+0  00000+0 0  9991
2 42738  40.5316 253.3885 0756989 269.5076 275.5260  1.00277577   562
QZS-3 (QZSS/PRN 199)    
1 42917U 17048A   24196.58777356 -.00000331  00000+0  00000+0 0  9999
2 42917   0.0591 207.6042 0002272 268.6313 155.3358  1.00270700 25210
QZS-4 (QZSS/PRN 195)    
1 42965U 17062A   24176.78903547 -.00000324  00000+0  00000+0 0  9993
2 42965  40.5115 352.6916 0746082 271.6310  68.9097  1.00249876 24566
BEIDOU-3 G1 (PRN 130)   
1 43683U 18085A   24196.59029722 -.00000262  00000+0  00000+0 0  9993
2 43683   2.2569 108.5673 0004084 352.3932 184.4398  1.00277010 21012
BEIDOU-3 G2 (PRN 144)   
1 45344U 20017A   24196.57841043 -.00000127  00000+0  00000+0 0  9993
2 45344   2.3484  30.6710 0001959 128.8950  61.6384  1.00271688 16218
BEIDOU-3 G3 (PRN 143)   
1 45807U 20040A   24196.58441498 -.00000337  00000+0  00000+0 0  9997
2 45807   0.8226  45.5916 0004550  18.3207 189.8128  1.00264649 15026
GALAXY 30 (WAAS/PRN 135)
1 46114U 20056C   24196.61377834  .00000054  00000+0  00000+0 0  9997
2 46114   0.0192  46.5731 0002105  63.2716 279.0712  1.00272239 14244
QZS-1R (QZSS/PRN 196)   
1 49336U 21096A   24195.60257625 -.00000285  00000+0  00000+0 0  9991
2 49336  35.9959  90.1285 0757553 271.9941 279.1237  1.00250056  9950
